[{"OBJECT_NAME":"SKYSAT-C7","OBJECT_ID":"2017-068E","EPOCH":"2026-03-09T21:38:40.138944","MEAN_MOTION":15.34728444,"ECCENTRICITY":0.0007376,"INCLINATION":97.4366,"RA_OF_ASC_NODE":205.4362,"ARG_OF_PERICENTER":103.1891,"MEAN_ANOMALY":257.0175,"EPHEMERIS_TYPE":0,"CLASSIFICATION_TYPE":"U","NORAD_CAT_ID":42991,"ELEMENT_SET_NO":999,"REV_AT_EPOCH":46713,"BSTAR":0.00041293962,"MEAN_MOTION_DOT":0.0001384,"MEAN_MOTION_DDOT":0},{"OBJECT_NAME":"STARLINK-30109","OBJECT_ID":"2023-056N","EPOCH":"2026-03-09T22:00:01.999584","MEAN_MOTION":15.25380147,"ECCENTRICITY":0.00014702,"INCLINATION":42.9996,"RA_OF_ASC_NODE":207.3396,"ARG_OF_PERICENTER":277.6687,"MEAN_ANOMALY":214.2238,"EPHEMERIS_TYPE":0,"CLASSIFICATION_TYPE":"U","NORAD_CAT_ID":56298,"ELEMENT_SET_NO":999,"REV_AT_EPOCH":553,"BSTAR":0.034557724,"MEAN_MOTION_DOT":0.00964696,"MEAN_MOTION_DDOT":0}]
